{
  "norad_id": 63166,
  "name": "QIANFAN-80",
  "history": [
    {
      "epoch": "2026-04-30T14:26:48.347808Z",
      "apogee_km": 1080.200342479272,
      "perigee_km": 1056.9310348517847,
      "latitude_deg": 1.7052180503446827e-06,
      "longitude_deg": -129.82169258361554,
      "height_km": 1071.7783852626048,
      "semi_major_axis_km": 7446.7026886655285,
      "eccentricity": 0.00156239,
      "inclination_deg": 88.9681,
      "raan_deg": 305.4261,
      "arg_perigee_deg": 91.4825,
      "mean_anomaly_deg": 268.8116,
      "mean_motion_rev_day": 13.51004326
    },
    {
      "epoch": "2026-05-02T10:53:04.483968Z",
      "apogee_km": 1080.2024632570856,
      "perigee_km": 1056.928539259653,
      "latitude_deg": 1.8389595796329535e-05,
      "longitude_deg": -78.40712506490571,
      "height_km": 1070.8346690552655,
      "semi_major_axis_km": 7446.702501258369,
      "eccentricity": 0.0015627,
      "inclination_deg": 88.9681,
      "raan_deg": 305.2329,
      "arg_perigee_deg": 86.8355,
      "mean_anomaly_deg": 273.4584,
      "mean_motion_rev_day": 13.51004377
    },
    {
      "epoch": "2026-05-03T18:52:47.277120Z",
      "apogee_km": 1080.187268060521,
      "perigee_km": 1056.9431318136376,
      "latitude_deg": 4.758877591571229e-05,
      "longitude_deg": 160.21147006683054,
      "height_km": 1070.1637924912566,
      "semi_major_axis_km": 7446.702199937079,
      "eccentricity": 0.0015607,
      "inclination_deg": 88.9681,
      "raan_deg": 305.0938,
      "arg_perigee_deg": 83.5122,
      "mean_anomaly_deg": 276.7806,
      "mean_motion_rev_day": 13.51004459
    }
  ]
}